[{"OBJECT_NAME":"ORBCOMM FM19","OBJECT_ID":"1998-046C","EPOCH":"2026-03-09T00:07:17.563296","MEAN_MOTION":14.39270127,"ECCENTRICITY":0.00018158,"INCLINATION":44.9959,"RA_OF_ASC_NODE":359.683,"ARG_OF_PERICENTER":187.4459,"MEAN_ANOMALY":272.3467,"EPHEMERIS_TYPE":0,"CLASSIFICATION_TYPE":"U","NORAD_CAT_ID":25415,"ELEMENT_SET_NO":999,"REV_AT_EPOCH":44234,"BSTAR":0.00058926699,"MEAN_MOTION_DOT":1.703e-5,"MEAN_MOTION_DDOT":0},{"OBJECT_NAME":"CZ-6A DEB","OBJECT_ID":"2022-151HC","EPOCH":"2026-03-09T15:05:45.740832","MEAN_MOTION":14.46809303,"ECCENTRICITY":0.0105682,"INCLINATION":98.615,"RA_OF_ASC_NODE":106.745,"ARG_OF_PERICENTER":299.1748,"MEAN_ANOMALY":59.8902,"EPHEMERIS_TYPE":0,"CLASSIFICATION_TYPE":"U","NORAD_CAT_ID":54476,"ELEMENT_SET_NO":999,"REV_AT_EPOCH":17432,"BSTAR":0.0010177,"MEAN_MOTION_DOT":3.903e-5,"MEAN_MOTION_DDOT":0}]
